SBSS (USA 216)          
1 37168U 10048A   26068.88624904  .00004946  00000+0  24191-3 0  9993
2 37168  97.7474 312.3885 0082264 184.8326 306.5835 15.15724210837421
STARLINK-4468           
1 53969U 22125F   26068.69950583 -.00000155  00000+0  83675-5 0  9996
2 53969  53.2170 224.0741 0001246  84.6033 275.5101 15.08840891189327
